[{"OBJECT_NAME":"TEVEL2-1","OBJECT_ID":"2025-052H","EPOCH":"2026-03-09T15:32:51.927072","MEAN_MOTION":15.30341923,"ECCENTRICITY":0.0004767,"INCLINATION":97.3991,"RA_OF_ASC_NODE":324.7682,"ARG_OF_PERICENTER":104.8919,"MEAN_ANOMALY":255.2849,"EPHEMERIS_TYPE":0,"CLASSIFICATION_TYPE":"U","NORAD_CAT_ID":63217,"ELEMENT_SET_NO":999,"REV_AT_EPOCH":5485,"BSTAR":0.000706,"MEAN_MOTION_DOT":0.00020683,"MEAN_MOTION_DDOT":0},{"OBJECT_NAME":"STARLINK-33725","OBJECT_ID":"2025-087W","EPOCH":"2026-03-09T16:58:04.198656","MEAN_MOTION":15.3017787,"ECCENTRICITY":0.0001106,"INCLINATION":53.1574,"RA_OF_ASC_NODE":219.3748,"ARG_OF_PERICENTER":58.29,"MEAN_ANOMALY":301.8208,"EPHEMERIS_TYPE":0,"CLASSIFICATION_TYPE":"U","NORAD_CAT_ID":63717,"ELEMENT_SET_NO":999,"REV_AT_EPOCH":4920,"BSTAR":0.0015649441,"MEAN_MOTION_DOT":0.00046247,"MEAN_MOTION_DDOT":0}]
